SITRO-AIS-26
1 59067U 24039S   25308.93270186  .00003959  00000-0  32533-3 0  9994
2 59067  95.3931  81.1217 0152401  31.9905 329.0460 14.90757957 91276
SITRO-AIS-27
1 59068U 24039T   25308.96142877  .00004121  00000-0  33616-3 0  9998
2 59068  95.3930  81.3186 0151512  30.9433 330.0610 14.91106995 91292
SITRO-AIS-28
1 59071U 24039U   25308.94445325  .00003673  00000-0  29962-3 0  9994
2 59071  95.3932  81.3420 0151430  30.9010 330.1017 14.91150738 91295
SONATE-2
1 59112U 24043Q   25308.79663546  .00024745  00000-0  57474-3 0  9997
2 59112  97.5314  83.7178 0008958 304.0380  56.0016 15.42311273 93123
HORS-1
1 57188U 23091Y   25308.95411769  .00009522  00000-0  42245-3 0  9992
2 57188  97.5416   6.6652 0010687 152.3681 207.8125 15.21747158130152
HORS-2
1 57196U 23091AG  25308.97869626  .00013832  00000-0  55467-3 0  9991
2 57196  97.5430   8.6259 0010152 148.8631 211.3210 15.25078509130273
ZORKIY-2M 6
1 59774U 24092B   25308.93352812  .00011490  00000-0  49057-3 0  9993
2 59774  97.6288  68.2038 0009283 245.3436 114.6834 15.23020208 81335
ZORKIY-2M 4
1 59775U 24092C   25308.94115067  .00012296  00000-0  51672-3 0  9995
2 59775  97.6422  69.4214 0009296 248.8835 111.1408 15.23541894 81361
SITRO-AIS-53
1 59776U 24092D   25308.78093817  .00016845  00000-0  63401-3 0  9993
2 59776  97.6367  69.5970 0008594 219.8813 140.1795 15.27161600 81384
SITRO-AIS-54
1 59777U 24092E   25308.78410863  .00016684  00000-0  62904-3 0  9996
2 59777  97.6366  69.5846 0008800 220.5859 139.4724 15.27104993 81380
SITRO-AIS-56
1 59778U 24092F   25308.78147142  .00016792  00000-0  62502-3 0  9998
2 59778  97.6364  69.7106 0008949 220.8590 139.1979 15.27527865 81396
RASSVET 1-4
1 59779U 24092G   25308.90168881  .00000264  00000-0  11548-3 0  9997
2 59779  98.6507  63.5015 0012639 144.4295 215.7733 14.31705618 76809
RASSVET 1-5
1 59780U 24092H   25308.90153149  .00000260  00000-0  11417-3 0  9991
2 59780  98.6506  63.4965 0012995 145.7370 214.4654 14.31704964 76807
RASSVET 1-6
1 59781U 24092J   25308.97011623  .00000253  00000-0  11150-3 0  9995
2 59781  98.6507  63.5691 0012892 145.7740 214.4277 14.31705334 76817
SITRO-AIS-55
1 59809U 24092K   25308.81686883  .00018436  00000-0  69680-3 0  9998
2 59809  97.6355  69.5023 0008971 220.7324 139.3244 15.26999897 80883
MESAT-1
1 60209U 24125G   25308.56720509  .00029949  00000-0  67515-3 0  9993
2 60209  97.2573 158.9896 0015208 330.1027  29.9351 15.43082971 74718
ISTSAT-1
1 60238U 24128D   25308.94089775  .00008150  00000-0  52738-3 0  9995
2 60238  61.9891 276.8775 0055235  87.4986 273.2429 15.07648820 72604
IONOSFERA-M 01
1 61735U 24199A   25308.92079847  .00000077  00000-0  53932-4 0  9991
2 61735  98.7436 179.0530 0002094  75.8760 284.2650 14.22700879 95814
IONOSFERA-M 02
1 61736U 24199B   25308.95549326  .00000079  00000-0  54867-4 0  9999
2 61736  98.7434 179.0004 0000262 118.5518 241.5687 14.22702814 98944
SITRO-AIS-16
1 61737U 24199C   25308.95089584  .00002902  00000-0  26369-3 0  9997
2 61737  97.3385 157.2336 0008505  99.3678 260.8506 14.95936263 98279
SITRO-AIS-15
1 61738U 24199D   25308.93846274  .00003988  00000-0  36025-3 0  9998
2 61738  97.3383 157.2505 0008432 100.1620 260.0554 14.95969458 98270
SITRO-AIS-21
1 61739U 24199E   25308.93524112  .00002598  00000-0  24761-3 0  9993
2 61739  97.3389 156.3756 0014651  97.2680 263.0207 14.94077823 98258
SITRO-AIS-22
1 61740U 24199F   25308.91767161  .00003271  00000-0  30844-3 0  9994
2 61740  97.3381 156.4078 0014494  97.5767 262.7101 14.94337737 98403
SITRO-AIS-24
1 61741U 24199G   25308.92652569  .00004229  00000-0  39726-3 0  9993
2 61741  97.3384 156.4017 0014538  98.2607 262.0264 14.94346359 98379
SITRO-AIS-23
1 61742U 24199H   25308.97617936  .00003119  00000-0  29417-3 0  9991
2 61742  97.3381 156.4825 0014194  98.1621 262.1211 14.94364891 98269
SITRO-AIS-13
1 61743U 24199J   25308.96400973  .00002909  00000-0  26270-3 0  9992
2 61743  97.3376 157.3628 0007726 100.7791 259.4302 14.96181991 98446
CSTP-2.11
1 61744U 24199K   25308.97141520  .00019682  00000-0  51016-3 0  9996
2 61744  97.3298 177.3652 0011443  20.3632 339.8068 15.38994225 99735
POLYTECH UNIVERSE-5 (RS70S)
1 61745U 24199L   25308.92417218  .00029935  00000-0  70219-3 0  9990
2 61745  97.3276 177.9047 0009633  28.3601 331.8169 15.41966460102911
COLIBRI-S (RS67S)
1 61746U 24199M   25308.95975282  .00016951  00000-0  46471-3 0  9991
2 61746  97.3303 176.9285 0011691  22.4405 337.7349 15.37290365102846
POLYTECH UNIVERSE-4 (RS71S)
1 61747U 24199N   25308.92729212  .00016781  00000-0  47340-3 0  9996
2 61747  97.3305 176.6684 0011948  20.5859 339.5864 15.36398266102824
SITRO-AIS-44
1 61748U 24199P   25308.94438417  .00031291  00000-0  69531-3 0  9992
2 61748  97.3260 178.3016 0009266  28.3895 331.7856 15.43582648102944
VIZARD-ION (RS68S)
1 61749U 24199Q   25308.97036330  .00022165  00000-0  55291-3 0  9992
2 61749  97.3302 177.6766 0011035  20.5931 339.5758 15.40147293102899
MTUSI-1
1 61750U 24199R   25308.94617028  .00022020  00000-0  55766-3 0  9997
2 61750  97.3270 177.2672 0011541  29.7588 330.4313 15.39681339102875
VLADIVOSTOK-1
1 61751U 24199S   25308.96703286  .00010291  00000-0  33732-3 0  9998
2 61751  97.3289 175.3231 0011943  37.2548 322.9519 15.31754944102758
SITRO-AIS-14
1 61752U 24199T   25308.92662880  .00003712  00000-0  33529-3 0  9993
2 61752  97.3375 157.2644 0008199 101.7595 258.4547 14.96017368101575
HORS-3 (RS81S)
1 61753U 24199U   25308.96334506  .00022032  00000-0  55325-3 0  9993
2 61753  97.3274 177.3841 0010329  31.3390 328.8470 15.39954311102883
HORS-4 (RS82S)
1 61754U 24199V   25308.93685966  .00028357  00000-0  67869-3 0  9992
2 61754  97.3261 177.7020 0010497  29.5776 330.6062 15.41360756102904
SITRO-AIS-43
1 61755U 24199W   25308.92885899  .00033287  00000-0  73670-3 0  9994
2 61755  97.3261 178.3220 0009214  27.7111 332.4627 15.43690206102941
SITRO-AIS-42
1 61756U 24199X   25308.91935674  .00031212  00000-0  68877-3 0  9990
2 61756  97.3263 178.3389 0009302  27.6149 332.5591 15.43788841102942
HORIZON (RS59S)
1 61757U 24199Y   25308.93748944  .00047094  00000-0  88720-3 0  9999
2 61757  97.3275 179.3292 0009430  17.7302 342.4276 15.48328514103003
SITRO-AIS-20
1 61758U 24199Z   25308.94657764  .00003448  00000-0  30994-3 0  9995
2 61758  97.3383 157.3745 0007980 101.5455 258.6663 14.96257062101582
SITRO-AIS-19
1 61759U 24199AA  25308.94683959  .00003527  00000-0  31705-3 0  9990
2 61759  97.3383 157.3761 0007896 102.8511 257.3594 14.96243963101588
SITRO-AIS-41
1 61760U 24199AB  25308.97628447  .00030135  00000-0  67535-3 0  9991
2 61760  97.3267 178.2795 0009294  27.8993 332.2751 15.43336146102942
2024-199AC
1 61761U 24199AC  25308.95163436  .00023635  00000-0  57682-3 0  9991
2 61761  97.3260 177.6854 0009339  29.2836 330.8932 15.40818044102907
ARCTICSAT-1 (RS74S)
1 61762U 24199AD  25308.96884258  .00039890  00000-0  77737-3 0  9998
2 61762  97.3278 179.2816 0009651  16.0254 344.1300 15.47384231103000
SIT-HSE
1 61763U 24199AE  25308.94289057  .00031308  00000-0  76039-3 0  9993
2 61763  97.3278 178.0285 0007947  35.6569 324.5207 15.40921966102923
SIT-2086
1 61764U 24199AF  25308.97554684  .00017079  00000-0  42073-3 0  9998
2 61764  97.3273 178.1297 0008598  19.3903 340.7669 15.40608044 99776
MORDOVIA-IOT (RS50S)
1 61765U 24199AG  25308.94901042  .00088418  00000-0  11616-2 0  9993
2 61765  97.3221 181.2036 0007689  18.2869 341.8661 15.58181619 99985
RUZAEVKA-390 (RS44S)
1 61766U 24199AH  25308.97999359  .00065338  00000-0  10018-2 0  9996
2 61766  97.3233 180.5524 0008036  17.0568 343.0955 15.54069388 99943
2024-199AJ (? AHMAT-2)
1 61767U 24199AJ  25308.95088591  .00141208  00000-0  13914-2 0  9991
2 61767  97.3173 182.1960 0005942  22.1441 338.0075 15.65488154100059
HOD-HOD
1 61768U 24199AK  25308.92068130  .00019788  00000-0  51751-3 0  9995
2 61768  97.3276 177.3243 0008423  37.0335 323.1490 15.38749675 99723
KOSAR
1 61769U 24199AL  25308.95857816  .00020048  00000-0  50167-3 0  9997
2 61769  97.3273 177.7064 0008323  37.2326 322.9496 15.40100244 99759
SITRO-AIS-48
1 61771U 24199AN  25308.92015067  .00027557  00000-0  68455-3 0  9992
2 61771  97.3245 177.0203 0012498  36.7788 323.4314 15.40213760 99712
HYPERVIEW-1G (RS66S)
1 61772U 24199AP  25308.93927735  .00036476  00000-0  80082-3 0  9998
2 61772  97.3260 178.0022 0012610  28.0819 332.1106 15.43870088 99772
SITRO-AIS-47
1 61773U 24199AQ  25308.95898071  .00026030  00000-0  64132-3 0  9994
2 61773  97.3249 177.1288 0012457  37.2280 322.9828 15.40475936 99720
SITRO-AIS-46
1 61774U 24199AR  25308.96371788  .00025771  00000-0  62472-3 0  9993
2 61774  97.3244 177.2555 0012501  37.3854 322.8260 15.40969672 99737
CSTP-2.2
1 61775U 24199AS  25308.93061578  .00015230  00000-0  43099-3 0  9997
2 61775  97.3288 176.1229 0018582  15.9100 344.2723 15.36218785 99642
SITRO-AIS-40
1 61776U 24199AT  25308.96439021  .00026285  00000-0  63589-3 0  9991
2 61776  97.3243 177.2586 0012584  37.3556 322.8563 15.41026496102888
CSTP-2.1
1 61777U 24199AU  25308.92704038  .00016153  00000-0  45418-3 0  9995
2 61777  97.3289 176.1205 0018170  17.0497 343.1353 15.36415007 99647
SITRO-AIS-39
1 61778U 24199AV  25308.95244529  .00024591  00000-0  61414-3 0  9992
2 61778  97.3245 176.9794 0012740  37.7036 322.5100 15.40070546 99715
ALTAIR (RS65S)
1 61779U 24199AW  25308.92771009  .00010120  00000-0  33208-3 0  9991
2 61779  97.3305 175.1014 0015826  35.7525 324.4773 15.31672107102722
SITRO-AIS-37
1 61780U 24199AX  25308.92260344  .00028410  00000-0  70100-3 0  9991
2 61780  97.3254 177.0592 0012981  37.4838 322.7311 15.40406023 99719
ASRTU-1 (RS64S/BJ2CR)
1 61781U 24199AY  25308.97046138  .00010854  00000-0  36482-3 0  9998
2 61781  97.3292 174.8543 0016298  36.4513 323.7834 15.30871321 99567
TUSUR GO (RS78S)
1 61782U 24199AZ  25308.98295600  .00050419  00000-0  97896-3 0  9997
2 61782  97.3244 178.5301 0012435  27.2738 332.9163 15.47404401 99818
